{
  "name": "SES",
  "date": "2020-03-18 20:59:10 CET",
  "tles": [{
    "ASTRA 1D": [
      "1 23331C 94070A   20077.59375000 -.00000165  00000-0  00000-0 0   777",
      "2 23331   8.9843  42.7242 0004143 320.2997 313.3416  1.00273321    12"
    ],
    "ASTRA 1F": [
      "1 23842C 96021A   20078.08333333  .00000225  00000-0  00000-0 0   787",
      "2 23842   0.0437 345.4786 0004378  12.4321 252.4770  1.00269533    14"
    ],
    "AMC-1 (GE-1)": [
      "1 24315C 96054A   20078.08333333  .00000159  00000-0  00000-0 0   785",
      "2 24315   3.7361  79.3613 0003224 282.0149  73.7975  1.00272735    19"
    ],
    "AMC-2 (GE-2)": [
      "1 24713C 97002A   20078.09375000 -.00000116  00000-0  00000-0 0   783",
      "2 24713   6.2084  60.8623 0005657 309.5452 114.5575  1.00274075    10"
    ],
    "AMC-3 (GE-3)": [
      "1 24936C 97050A   20078.09375000 -.00000169  00000-0  00000-0 0   781",
      "2 24936   2.5960  86.4328 0003189 287.4442 123.9533  1.00273289    10"
    ],
    "NSS-5": [
      "1 24957C 97053A   20078.08333333  .00000202  00000-0  00000-0 0   786",
      "2 24957   5.7935  64.2827 0003866 297.8125 254.4910  1.00268636    12"
    ],
    "ASTRA 1G": [
      "1 25071C 97076A   20078.08333333  .00000113  00000-0  00000-0 0   780",
      "2 25071   4.4266  73.7607 0003869 291.7971 263.7572  1.00270006    10"
    ],
    "ASTRA 2A": [
      "1 25462C 98050A   20078.08333333 -.00000214  00000-0  00000-0 0   780",
      "2 25462   1.4134  94.1483 0002808 265.2173 306.7231  1.00272590    16"
    ],
    "AMC-4 (GE-4)": [
      "1 25954C 99060A   20078.08333333  .00000178  00000-0  00000-0 0   786",
      "2 25954   0.0651 282.4026 0002502  73.2259  75.5482  1.00271240    19"
    ],
    "ASTRA 2B": [
      "1 26494C 00054A   20078.08333333  .00000211  00000-0  00000-0 0   789",
      "2 26494   4.3240  74.3912 0005125 289.5437 221.7492  1.00270090    14"
    ],
    "NSS-11 (AAP-1)": [
      "1 26554C 00059A   20078.08333333  .00000158  00000-0  00000-0 0   781",
      "2 26554   0.0250 293.9323 0002361  73.8516  14.2805  1.00271626    10"
    ],
    "AMC-6 (GE-6)": [
      "1 26580C 00067A   20078.09375000  .00000057  00000-0  00000-0 0   785",
      "2 26580   0.0024 232.2212 0002574 146.1421 108.4612  1.00272805    18"
    ],
    "ASTRA 2D": [
      "1 26638C 00081A   20077.57291667  .00000159  00000-0  00000-0 0   775",
      "2 26638   5.6150  65.2012 0001994 296.5312  77.3754  1.00268846    10"
    ],
    "AMC-8 (GE-8)": [
      "1 26639C 00081B   20078.08333333  .00000195  00000-0  00000-0 0   781",
      "2 26639   0.4474  96.3977 0002029 229.4763 101.1938  1.00271540    18"
    ],
    "ASTRA 2C": [
      "1 26853C 01025A   20078.08333333  .00000227  00000-0  00000-0 0   784",
      "2 26853   2.6218  86.2002 0002817 276.4373 227.1387  1.00270142    11"
    ],
    "ASTRA 3A": [
      "1 27400C 02015B   20078.09375000 -.00000107  00000-0  00000-0 0   789",
      "2 27400   5.7467  63.9573 0001947 299.8037 119.2697  1.00274135    15"
    ],
    "NSS-7": [
      "1 27414C 02019A   20078.09375000 -.00000065  00000-0  00000-0 0   781",
      "2 27414   4.0401  77.3241 0002888 289.7538 182.7615  1.00270798    16"
    ],
    "NSS-6": [
      "1 27603C 02057A   20077.57291667 -.00000041  00000-0  00000-0 0   774",
      "2 27603   0.0665 269.8690 0011382 118.3488 256.2989  0.99791221    17"
    ],
    "AMC-11 (GE-11)": [
      "1 28252C 04017A   20078.08333333  .00000158  00000-0  00000-0 0   786",
      "2 28252   0.0194  71.7519 0002522 292.3637  70.9589  1.00270466    13"
    ],
    "AMC-15": [
      "1 28446C 04041A   20078.09375000  .00000035  00000-0  00000-0 0   780",
      "2 28446   0.0175  48.7124 0002820 334.0287  82.0272  1.00272249    13"
    ],
    "AMC-16": [
      "1 28472C 04048A   20078.09375000  .00000101  00000-0  00000-0 0   780",
      "2 28472   0.0239 289.8927 0003006  94.7455 100.2008  1.00270601    16"
    ],
    "NSS-10 (AMC-12)": [
      "1 28526C 05003A   20078.09375000 -.00000160  00000-0  00000-0 0   788",
      "2 28526   0.8079  95.3836 0002987 286.7553 150.2467  1.00271102    15"
    ],
    "ASTRA 1KR": [
      "1 29055C 06012A   20078.08333333  .00000209  00000-0  00000-0 0   782",
      "2 29055   0.0667 270.5352 0002088  37.2055 277.5052  1.00276319    14"
    ],
    "AMC-18": [
      "1 29644C 06054B   20078.08333333  .00000195  00000-0  00000-0 0   786",
      "2 29644   0.0057 218.3253 0002223 189.2082  19.5358  1.00271810    14"
    ],
    "ASTRA 1L": [
      "1 31306C 07016A   20078.08333333  .00000209  00000-0  00000-0 0   789",
      "2 31306   0.0755 298.7701 0004147  37.9605 248.5151  1.00275137    15"
    ],
    "ASTRA 4A (SIRIUS 4)": [
      "1 32299C 07057A   20078.08333333  .00000122  00000-0  00000-0 0   780",
      "2 32299   0.0450 305.7043 0002843  59.2324 205.9374  1.00271026    10"
    ],
    "AMC-21": [
      "1 33275C 08038B   20078.09375000  .00000126  00000-0  00000-0 0   787",
      "2 33275   0.0249 291.8393 0002480  82.3529  70.7212  1.00273672    13"
    ],
    "ASTRA 1M": [
      "1 33436C 08057A   20078.08333333  .00000209  00000-0  00000-0 0   781",
      "2 33436   0.0204 138.5906 0002357 295.1856 151.4765  1.00271161    11"
    ],
    "NSS-9": [
      "1 33749C 09008A   20078.08333333  .00000076  00000-0  00000-0 0   787",
      "2 33749   0.0000 241.0097 0002116 132.0935  16.0388  1.00270454    14"
    ],
    "SES-7 (PROTOSTAR 2)": [
      "1 34941C 09027A   20078.08333333 -.00000255  00000-0  00000-0 0   783",
      "2 34941   0.0405 101.4045 0001095 242.9096 330.0278  1.00270576    16"
    ],
    "NSS-12": [
      "1 36032C 09058A   20078.08333333  .00000158  00000-0  00000-0 0   781",
      "2 36032   0.0305 350.3164 0002819  18.0671 254.6852  1.00271660    15"
    ],
    "SES-1": [
      "1 36516C 10016A   20078.09375000 -.00000023  00000-0  00000-0 0   784",
      "2 36516   0.0100 244.5269 0002483 119.7548 104.5544  1.00272167    18"
    ],
    "ASTRA 3B": [
      "1 36581C 10021A   20078.08333333  .00000227  00000-0  00000-0 0   789",
      "2 36581   0.0412  45.1248 0003483 314.5657 229.8760  1.00269359    15"
    ],
    "SES-3": [
      "1 37748C 11035A   20078.09375000 -.00000015  00000-0  00000-0 0   785",
      "2 37748   0.0194 281.3164 0002169  70.7495 114.7651  1.00272194    12"
    ],
    "ASTRA 1N": [
      "1 37775C 11041A   20078.08333333  .00000209  00000-0  00000-0 0   788",
      "2 37775   0.0447   7.7351 0005483  17.8731 199.6495  1.00271598    13"
    ],
    "SES-2": [
      "1 37809C 11049A   20078.09375000  .00000076  00000-0  00000-0 0   784",
      "2 37809   0.0094 245.1463 0002631 121.8120 115.8708  1.00272437    11"
    ],
    "SES-4": [
      "1 38087C 12007A   20078.09375000 -.00000073  00000-0  00000-0 0   786",
      "2 38087   0.0323 347.0069 0002570  30.8414 169.9841  1.00271834    14"
    ],
    "SES-5": [
      "1 38652C 12036A   20078.08333333  .00000123  00000-0  00000-0 0   783",
      "2 38652   0.0488 101.7887 0001888 261.6946 207.5670  1.00271255    18"
    ],
    "ASTRA 2F": [
      "1 38778C 12051A   20078.08333333  .00000240  00000-0  00000-0 0   789",
      "2 38778   0.0511 205.9790 0001652  80.9684 307.3067  1.00269781    14"
    ],
    "SES-6": [
      "1 39172C 13026A   20078.09375000 -.00000171  00000-0  00000-0 0   783",
      "2 39172   0.0559 299.4458 0001626  62.8767 167.0058  1.00273200    18"
    ],
    "ASTRA 2E": [
      "1 39285C 13056A   20078.08333333  .00000240  00000-0  00000-0 0   789",
      "2 39285   0.0779  52.7940 0002206 313.4545 228.3295  1.00272574    14"
    ],
    "SES-8": [
      "1 39460C 13071A   20078.08333333 -.00000180  00000-0  00000-0 0   785",
      "2 39460   0.0257 219.4296 0001942 175.7996 265.8395  1.00272788    15"
    ],
    "ASTRA 5B": [
      "1 39617C 14011B   20078.08333333  .00000244  00000-0  00000-0 0   784",
      "2 39617   0.0515 318.7306 0003202  46.5891 232.2441  1.00274844    16"
    ],
    "ASTRA 2G": [
      "1 40364C 14089A   20078.08333333  .00000224  00000-0  00000-0 0   788",
      "2 40364   0.0374  48.1198 0004217 353.7791 192.3671  1.00274692    14"
    ],
    "SES-9": [
      "1 41380C 16013A   20078.08333333 -.00000255  00000-0  00000-0 0   781",
      "2 41380   0.0364 268.7076 0001889 146.6803 258.9890  1.00271262    14"
    ],
    "SES-10": [
      "1 42432C 17017A   20078.09375000 -.00000171  00000-0  00000-0 0   780",
      "2 42432   0.0078 112.2146 0002543 247.9930 142.7186  1.00272810    18"
    ],
    "SES-15": [
      "1 42709C 17026A   20078.09375000  .00000150  00000-0  00000-0 0   783",
      "2 42709   0.0199  95.8826 0000672 293.3716  51.4369  1.00271510    13"
    ],
    "SES-11 (ECHOSTAR 105)": [
      "1 42967C 17063A   20078.09375000  .00000001  00000-0  00000-0 0   785",
      "2 42967   0.0080 151.6719 0002798 216.0654  97.1517  1.00271006    16"
    ],
    "SES-14": [
      "1 43175C 18012B   20078.09375000 -.00000161  00000-0  00000-0 0   780",
      "2 43175   0.0096 235.3384 0000892 140.4100 146.5808  1.00272894    10"
    ]
  }]
}
